NORAD_CAT_ID,OBJECT_NAME,OBJECT_TYPE,EPOCH,MEAN_MOTION,ECCENTRICITY,INCLINATION,RA_OF_ASC_NODE,ARG_OF_PERICENTER,MEAN_ANOMALY,BSTAR,MEAN_MOTION_DOT,MEAN_MOTION_DDOT,TLE_LINE0,TLE_LINE1,TLE_LINE2,SEMIMAJOR_AXIS,PERIOD,APOGEE,PERIGEE,DECAYED
50850.0,STARLINK-3312,PAYLOAD,2023-02-10 23:15:55,15.08833417,9.58e-05,53.2164,139.2157,82.5276,277.5825,2.3162e-05,8.1e-07,0.0,0 STARLINK-3312,1 50850U 22001AZ  23041.96939418  .00000081  00000-0  23162-4 0  9999,2 50850  53.2164 139.2157 0000958  82.5276 277.5825 15.08833417 62612,6917.901,95.438,540.428,539.103,0.0
50850.0,STARLINK-3312,PAYLOAD,2023-02-11 11:59:01,15.08832127,0.000137,53.2159,136.8377,84.1786,275.9362,-8.3976e-05,-1.624e-05,0.0,0 STARLINK-3312,1 50850U 22001AZ  23042.49931962 -.00001624  00000-0 -83976-4 0  9999,2 50850  53.2159 136.8377 0001370  84.1786 275.9362 15.08832127 61957,6917.904,95.438,540.717,538.822,0.0
50850.0,STARLINK-3312,PAYLOAD,2023-02-12 05:28:15,15.08834402,0.0001257,53.215,133.5679,102.0762,258.0371,0.00016042,2.266e-05,0.0,0 STARLINK-3312,1 50850U 22001AZ  23043.22796052  .00002266  00000-0  16042-3 0  9990,2 50850  53.2150 133.5679 0001257 102.0762 258.0371 15.08834402 62800,6917.897,95.438,540.632,538.893,0.0
50850.0,STARLINK-3312,PAYLOAD,2023-02-12 10:14:25,15.08835062,0.0001227,53.2156,132.6759,105.3437,254.7691,0.00015607,2.197e-05,0.0,0 STARLINK-3312,1 50850U 22001AZ  23043.42668075  .00002197  00000-0  15607-3 0  9994,2 50850  53.2156 132.6759 0001227 105.3437 254.7691 15.08835062 62099,6917.895,95.438,540.609,538.912,0.0
50850.0,STARLINK-3312,PAYLOAD,2023-02-12 13:25:10,15.08851903,0.000114,53.2152,132.0766,129.8055,230.3037,0.00017276,2.464e-05,0.0,0 STARLINK-3312,1 50850U 22001AZ  23043.55915008  .00002464  00000-0  17276-3 0  9990,2 50850  53.2152 132.0766 0001140 129.8055 230.3037 15.08851903 62858,6917.844,95.437,540.498,538.92,0.0
50850.0,STARLINK-3312,PAYLOAD,2023-02-13 05:19:02,15.08841417,0.0001332,53.2159,129.1061,85.415,274.6995,0.00023509,3.456e-05,0.0,0 STARLINK-3312,1 50850U 22001AZ  23044.22155857  .00003456  00000-0  23509-3 0  9991,2 50850  53.2159 129.1061 0001332  85.4150 274.6995 15.08841417 62950,6917.876,95.437,540.663,538.82,0.0
50850.0,STARLINK-3312,PAYLOAD,2023-02-13 11:40:34,15.08851914,0.0001567,53.2161,127.919,84.3791,275.738,0.00024691,3.645e-05,0.0,0 STARLINK-3312,1 50850U 22001AZ  23044.48650954  .00003645  00000-0  24691-3 0  9990,2 50850  53.2161 127.9190 0001567  84.3791 275.7380 15.08851914 62998,6917.844,95.437,540.793,538.625,0.0
50850.0,STARLINK-3312,PAYLOAD,2023-02-14 11:31:22,15.08836424,0.0001279,53.2165,123.4552,118.6938,241.4183,0.00011533,1.548e-05,0.0,0 STARLINK-3312,1 50850U 22001AZ  23045.48011950  .00001548  00000-0  11533-3 0  9999,2 50850  53.2165 123.4552 0001279 118.6938 241.4183 15.08836424 63147,6917.891,95.438,540.641,538.872,0.0
50850.0,STARLINK-3312,PAYLOAD,2023-02-14 22:39:03,15.08847048,0.0001271,53.2167,121.3734,119.7076,240.4042,-1.8145e-05,-5.77e-06,0.0,0 STARLINK-3312,1 50850U 22001AZ  23045.94379268 -.00000577  00000-0 -18145-4 0  9999,2 50850  53.2167 121.3734 0001271 119.7076 240.4042 15.08847048 63210,6917.859,95.437,540.603,538.845,0.0
50850.0,STARLINK-3312,PAYLOAD,2023-02-15 08:11:22,15.08836803,0.0001122,53.2155,119.5891,109.1167,250.9947,3.9988e-05,3.49e-06,0.0,0 STARLINK-3312,1 50850U 22001AZ  23046.34123771  .00000349  00000-0  39988-4 0  9993,2 50850  53.2155 119.5891 0001122 109.1167 250.9947 15.08836803 63272,6917.89,95.438,540.531,538.979,0.0
50850.0,STARLINK-3312,PAYLOAD,2023-02-15 11:22:08,15.08847404,9.28e-05,53.2163,118.9941,93.499,266.6109,0.00016509,2.341e-05,0.0,0 STARLINK-3312,1 50850U 22001AZ  23046.47371124  .00002341  00000-0  16509-3 0  9991,2 50850  53.2163 118.9941 0000928  93.4990 266.6109 15.08847404 63297,6917.858,95.437,540.365,539.081,0.0
50850.0,STARLINK-3312,PAYLOAD,2023-02-16 11:12:55,15.08861044,0.0001138,53.2156,114.5344,112.8129,247.2983,0.00048171,7.391e-05,0.0,0 STARLINK-3312,1 50850U 22001AZ  23047.46730356  .00007391  00000-0  48171-3 0  9997,2 50850  53.2156 114.5344 0001138 112.8129 247.2983 15.08861044 62708,6917.816,95.436,540.468,538.894,0.0
50850.0,STARLINK-3312,PAYLOAD,2023-02-16 14:23:40,15.08868693,0.0001297,53.2164,113.9391,111.4269,248.6862,0.00054652,8.427e-05,0.0,0 STARLINK-3312,1 50850U 22001AZ  23047.59977829  .00008427  00000-0  54652-3 0  9991,2 50850  53.2164 113.9391 0001297 111.4269 248.6862 15.08868693 63460,6917.793,95.436,540.555,538.76,0.0
50850.0,STARLINK-3312,PAYLOAD,2023-02-16 20:45:15,15.08822829,0.0001281,53.215,112.7488,112.1448,247.968,-0.00019233,-3.346e-05,0.0,0 STARLINK-3312,1 50850U 22001AZ  23047.86475945 -.00003346  00000-0 -19233-3 0  9996,2 50850  53.2150 112.7488 0001281 112.1448 247.9680 15.08822829 62762,6917.933,95.439,540.684,538.912,0.0
50850.0,STARLINK-3312,PAYLOAD,2023-02-17 11:03:43,15.08824503,0.0001394,53.2165,110.0768,120.8964,239.2166,-0.00028525,-4.823e-05,0.0,0 STARLINK-3312,1 50850U 22001AZ  23048.46092407 -.00004823  00000-0 -28525-3 0  9996,2 50850  53.2165 110.0768 0001394 120.8964 239.2166 15.08824503 62858,6917.928,95.439,540.757,538.828,0.0
50850.0,STARLINK-3312,PAYLOAD,2023-02-17 20:36:02,15.08826886,0.0001479,53.2168,108.2933,123.2423,236.8711,-0.00014685,-2.623e-05,0.0,0 STARLINK-3312,1 50850U 22001AZ  23048.85836658 -.00002623  00000-0 -14685-3 0  9991,2 50850  53.2168 108.2933 0001479 123.2423 236.8711 15.08826886 63659,6917.92,95.438,540.809,538.762,0.0
50850.0,STARLINK-3312,PAYLOAD,2023-02-18 14:05:17,15.08830137,0.0001634,53.2156,105.0187,126.2297,233.8846,0.00013583,1.874e-05,0.0,0 STARLINK-3312,1 50850U 22001AZ  23049.58701270  .00001874  00000-0  13583-3 0  9994,2 50850  53.2156 105.0187 0001634 126.2297 233.8846 15.08830137 63028,6917.911,95.438,540.906,538.645,0.0
50850.0,STARLINK-3312,PAYLOAD,2023-02-18 20:26:50,15.08836,0.0001395,53.2165,103.8288,121.1047,239.0082,0.00027423,4.079e-05,0.0,0 STARLINK-3312,1 50850U 22001AZ  23049.85197229  .00004079  00000-0  27423-3 0  9995,2 50850  53.2165 103.8288 0001395 121.1047 239.0082 15.08836000 63808,6917.893,95.438,540.723,538.793,0.0
50850.0,STARLINK-3312,PAYLOAD,2023-02-19 10:45:18,15.08853707,0.0001425,53.2161,101.1522,122.1726,237.9404,0.0005806,8.968e-05,0.0,0 STARLINK-3312,1 50850U 22001AZ  23050.44812846  .00008968  00000-0  58060-3 0  9993,2 50850  53.2161 101.1522 0001425 122.1726 237.9404 15.08853707 63892,6917.838,95.437,540.689,538.718,0.0
50850.0,STARLINK-3312,PAYLOAD,2023-02-20 09:00:41,15.08857316,0.0001499,53.2144,96.9889,107.6927,252.4229,0.00032811,4.94e-05,0.0,0 STARLINK-3312,1 50850U 22001AZ  23051.37548139  .00004940  00000-0  32811-3 0  9999,2 50850  53.2144  96.9889 0001499 107.6927 252.4229 15.08857316 64036,6917.827,95.436,540.729,538.655,0.0
50850.0,STARLINK-3312,PAYLOAD,2023-02-20 12:11:27,15.08866375,0.0001414,53.2147,96.3943,105.6835,254.4313,0.00077271,0.0001204,0.0,0 STARLINK-3312,1 50850U 22001AZ  23051.50795906  .00012040  00000-0  77271-3 0  9999,2 50850  53.2147  96.3943 0001414 105.6835 254.4313 15.08866375 63318,6917.8,95.436,540.643,538.687,0.0
50850.0,STARLINK-3312,PAYLOAD,2023-02-20 20:08:23,15.08832232,0.0001456,53.2137,94.9068,103.2935,256.8219,-0.00024734,-4.221e-05,0.0,0 STARLINK-3312,1 50850U 22001AZ  23051.83916129 -.00004221  00000-0 -24734-3 0  9997,2 50850  53.2137  94.9068 0001456 103.2935 256.8219 15.08832232 64104,6917.904,95.438,540.776,538.762,0.0
50850.0,STARLINK-3312,PAYLOAD,2023-02-21 08:51:28,15.08841792,0.0001277,53.2146,92.527,100.1134,260.0002,0.0013196,0.00020777,0.0,0 STARLINK-3312,1 50850U 22001AZ  23052.36908556  .00020777  00000-0  13196-2 0  9992,2 50850  53.2146  92.5270 0001277 100.1134 260.0002 15.08841792 64187,6917.875,95.437,540.623,538.856,0.0
50850.0,STARLINK-3312,PAYLOAD,2023-02-21 19:59:11,15.08843044,0.0001245,53.2134,90.445,97.0183,263.095,0.0011564,0.00018166,0.0,0 STARLINK-3312,1 50850U 22001AZ  23052.83276721  .00018166  00000-0  11564-2 0  9992,2 50850  53.2134  90.4450 0001245  97.0183 263.0950 15.08843044 63517,6917.871,95.437,540.597,538.875,0.0
50850.0,STARLINK-3312,PAYLOAD,2023-02-22 02:20:43,15.08843991,0.0001271,53.2133,89.2571,91.0215,269.0923,0.00071996,0.0001119,0.0,0 STARLINK-3312,1 50850U 22001AZ  23053.09772791  .00011190  00000-0  71996-3 0  9995,2 50850  53.2133  89.2571 0001271  91.0215 269.0923 15.08843991 64298,6917.868,95.437,540.612,538.854,0.0
50850.0,STARLINK-3312,PAYLOAD,2023-02-22 13:28:25,15.08855532,0.0001308,53.2137,87.1747,91.8649,268.2493,0.00075055,0.00011682,0.0,0 STARLINK-3312,1 50850U 22001AZ  23053.56140395  .00011682  00000-0  75055-3 0  9992,2 50850  53.2137  87.1747 0001308  91.8649 268.2493 15.08855532 63627,6917.833,95.437,540.603,538.793,0.0
50850.0,STARLINK-3312,PAYLOAD,2023-02-22 19:49:58,15.08840867,0.0001334,53.2154,85.9839,99.9784,260.1358,6.1386e-05,6.89e-06,0.0,0 STARLINK-3312,1 50850U 22001AZ  23053.82636616  .00000689  00000-0  61386-4 0  9995,2 50850  53.2154  85.9839 0001334  99.9784 260.1358 15.08840867 63662,6917.878,95.437,540.666,538.82,0.0
50850.0,STARLINK-3312,PAYLOAD,2023-02-23 05:22:16,15.08842309,0.0001324,53.2137,84.2006,93.0881,267.0263,0.0002297,3.37e-05,0.0,0 STARLINK-3312,1 50850U 22001AZ  23054.22380675  .00003370  00000-0  22970-3 0  9996,2 50850  53.2137  84.2006 0001324  93.0881 267.0263 15.08842309 64466,6917.873,95.437,540.654,538.822,0.0
50850.0,STARLINK-3312,PAYLOAD,2023-02-23 13:19:12,15.08852834,0.0001336,53.2152,82.7134,97.2403,262.8741,0.00048016,7.365e-05,0.0,0 STARLINK-3312,1 50850U 22001AZ  23054.55500392  .00007365  00000-0  48016-3 0  9999,2 50850  53.2152  82.7134 0001336  97.2403 262.8741 15.08852834 63778,6917.841,95.437,540.63,538.782,0.0
50850.0,STARLINK-3312,PAYLOAD,2023-02-24 11:34:36,15.08850465,0.0001406,53.2159,78.5487,95.5423,264.5729,0.00049208,7.554e-05,0.0,0 STARLINK-3312,1 50850U 22001AZ  23055.48236525  .00007554  00000-0  49208-3 0  9990,2 50850  53.2159  78.5487 0001406  95.5423 264.5729 15.08850465 63919,6917.848,95.437,540.686,538.741,0.0
